[
    {
        "Altitude(m)": 610399.5221151051,
        "Argument of Periapsis(deg)": 0.0,
        "Eccentricity": 0.0,
        "Inclination(deg)": 60.0,
        "Latitude(deg)": 52.11131639698536,
        "Longitude(deg)": -147.41558682668912,
        "Mean Anomaly(deg)": 65.45449999999998,
        "RAAN(deg)": 265.0,
        "Satellite Name": "Test1 1170",
        "Satellite Number": 1170,
        "Semi-Major Axis(m)": 6980739.136638005,
        "Time(s)": 0
    },
    {
        "Altitude(m)": 610481.6728096695,
        "Argument of Periapsis(deg)": 0.00010418945913296404,
        "Eccentricity": 0.0,
        "Inclination(deg)": 60.0,
        "Latitude(deg)": 52.470917508314415,
        "Longitude(deg)": -146.6334495435275,
        "Mean Anomaly(deg)": 66.07460614546183,
        "RAAN(deg)": 264.99957995086027,
        "Satellite Name": "Test1 1170",
        "Satellite Number": 1170,
        "Semi-Major Axis(m)": 6980739.136638005,
        "Time(s)": 10
    }
]